NORAD_CAT_ID,OBJECT_NAME,OBJECT_TYPE,EPOCH,MEAN_MOTION,ECCENTRICITY,INCLINATION,RA_OF_ASC_NODE,ARG_OF_PERICENTER,MEAN_ANOMALY,BSTAR,MEAN_MOTION_DOT,MEAN_MOTION_DDOT,TLE_LINE0,TLE_LINE1,TLE_LINE2,SEMIMAJOR_AXIS,PERIOD,APOGEE,PERIGEE,DECAYED
55920.0,STARLINK-5862,PAYLOAD,2023-08-11 00:45:01,14.99329073,0.0002574,70.0007,138.9239,270.7042,89.3822,-0.00055273,-6.855e-05,0.0,0 STARLINK-5862,1 55920U 23037G   23223.03126554 -.00006855  00000-0 -55273-3 0  9995,2 55920  70.0007 138.9239 0002574 270.7042  89.3822 14.99329073 23264,6947.105,96.043,570.758,567.182,0.0
55920.0,STARLINK-5862,PAYLOAD,2023-08-11 03:57:10,14.9929943,0.0002631,70.0013,138.588,268.0825,92.0034,-0.00010992,-1.438e-05,0.0,0 STARLINK-5862,1 55920U 23037G   23223.16470612 -.00001438  00000-0 -10992-3 0  9997,2 55920  70.0013 138.5880 0002631 268.0825  92.0034 14.99299430 23283,6947.197,96.045,570.889,567.234,0.0
55920.0,STARLINK-5862,PAYLOAD,2023-08-12 03:58:15,14.99301829,0.0002792,69.9996,136.0589,268.0401,92.0439,4.588e-05,4.68e-06,0.0,0 STARLINK-5862,1 55920U 23037G   23224.16545206  .00000468  00000-0  45880-4 0  9995,2 55920  69.9996 136.0589 0002792 268.0401  92.0439 14.99301829 23439,6947.189,96.045,570.994,567.115,0.0
55920.0,STARLINK-5862,PAYLOAD,2023-08-13 03:59:19,14.99302436,0.0002779,69.9995,133.5321,268.5842,91.4999,6.3704e-05,6.86e-06,0.0,0 STARLINK-5862,1 55920U 23037G   23225.16620294  .00000686  00000-0  63704-4 0  9994,2 55920  69.9995 133.5321 0002779 268.5842  91.4999 14.99302436 23588,6947.187,96.045,570.983,567.122,0.0
55920.0,STARLINK-5862,PAYLOAD,2023-08-13 18:23:59,14.99294333,0.0002772,69.9995,132.016,268.5735,91.5107,5.1289e-05,5.34e-06,0.0,0 STARLINK-5862,1 55920U 23037G   23225.76665955  .00000534  00000-0  51289-4 0  9990,2 55920  69.9995 132.0160 0002772 268.5735  91.5107 14.99294333 23675,6947.212,96.045,571.003,567.152,0.0
55920.0,STARLINK-5862,PAYLOAD,2023-08-15 02:26:19,14.98754258,0.0003102,69.9995,128.6482,272.756,87.3245,-0.005342,-0.00063954,0.0,0 STARLINK-5862,1 55920U 23037G   23227.10161812 -.00063954  00000-0 -53420-2 0  9997,2 55920  69.9995 128.6482 0003102 272.7560  87.3245 14.98754258 23878,6948.881,96.08,572.902,568.591,0.0
55920.0,STARLINK-5862,PAYLOAD,2023-08-15 16:51:20,14.98689818,0.0003025,69.9988,127.1332,267.7898,92.2915,-0.0050864,-0.00060824,0.0,0 STARLINK-5862,1 55920U 23037G   23227.70231922 -.00060824  00000-0 -50864-2 0  9995,2 55920  69.9988 127.1332 0003025 267.7898  92.2915 14.98689818 23968,6949.08,96.084,573.048,568.843,0.0
55920.0,STARLINK-5862,PAYLOAD,2023-08-16 08:52:30,14.98631708,0.0003261,69.9989,125.4493,268.7064,91.3721,-0.0046146,-0.00055153,0.0,0 STARLINK-5862,1 55920U 23037G   23228.36979940 -.00055153  00000-0 -46146-2 0  9994,2 55920  69.9989 125.4493 0003261 268.7064  91.3721 14.98631708 24068,6949.26,96.088,573.391,568.859,0.0
55920.0,STARLINK-5862,PAYLOAD,2023-08-16 16:53:10,14.98333394,0.0003145,69.999,124.6075,270.1936,89.8862,8.2271e-05,8.89e-06,0.0,0 STARLINK-5862,1 55920U 23037G   23228.70359915  .00000889  00000-0  82271-4 0  9991,2 55920  69.9990 124.6075 0003145 270.1936  89.8862 14.98333394 24117,6950.182,96.107,574.233,569.862,0.0
55920.0,STARLINK-5862,PAYLOAD,2023-08-17 06:00:00,14.98334452,0.0003022,70.0008,123.2305,273.7715,152.7755,-0.0015173,-0.00018152,0.0,0 STARLINK-5862,1 55920U 23037G   23229.25001157 -.00018152  00000-0 -15173-2 0  9993,2 55920  70.0008 123.2305 0003022 273.7715 152.7755 14.98334452 24194,6950.179,96.107,574.144,569.944,0.0
55920.0,STARLINK-5862,PAYLOAD,2023-08-17 22:00:00,14.98357634,0.0003063,70.0009,121.5497,270.839,150.6652,-0.0037634,-0.00044744,0.0,0 STARLINK-5862,1 55920U 23037G   23229.91667824 -.00044744  00000-0 -37634-2 0  9997,2 55920  70.0009 121.5497 0003063 270.8390 150.6652 14.98357634 24291,6950.107,96.105,574.101,569.844,0.0
55920.0,STARLINK-5862,PAYLOAD,2023-08-18 14:00:01,14.98286049,0.0003089,70.0006,119.8686,268.644,147.84,0.0067812,0.00081677,0.0,0 STARLINK-5862,1 55920U 23037G   23230.58334491  .00081677  00000-0  67812-2 0  9998,2 55920  70.0006 119.8686 0003089 268.6440 147.8400 14.98286049 24398,6950.329,96.11,574.341,570.047,0.0
55920.0,STARLINK-5862,PAYLOAD,2023-08-19 00:57:54,14.98327241,0.0002831,69.9991,118.7177,269.7346,90.3489,-7.0739e-06,-1.77e-06,0.0,0 STARLINK-5862,1 55920U 23037G   23231.04020840 -.00000177  00000-0 -70739-5 0  9993,2 55920  69.9991 118.7177 0002831 269.7346  90.3489 14.98327241 24469,6950.201,96.107,574.034,570.099,0.0
55920.0,STARLINK-5862,PAYLOAD,2023-08-20 02:36:03,14.98329538,0.000291,69.9992,116.0238,271.5544,88.5282,-1.4161e-05,-2.62e-06,0.0,0 STARLINK-5862,1 55920U 23037G   23232.10836842 -.00000262  00000-0 -14161-4 0  9999,2 55920  69.9992 116.0238 0002910 271.5544  88.5282 14.98329538 24627,6950.194,96.107,574.082,570.037,0.0
55920.0,STARLINK-5862,PAYLOAD,2023-08-21 02:38:03,14.98334808,0.0002859,69.9995,113.4984,273.7118,86.3714,7.4745e-05,7.99e-06,0.0,0 STARLINK-5862,1 55920U 23037G   23233.10976216  .00000799  00000-0  74745-4 0  9997,2 55920  69.9995 113.4984 0002859 273.7118  86.3714 14.98334808 24770,6950.178,96.107,574.03,570.056,0.0
55920.0,STARLINK-5862,PAYLOAD,2023-08-21 20:15:32,14.98329345,0.0002777,69.9995,111.6467,273.8546,86.2296,-3.2773e-05,-4.84e-06,0.0,0 STARLINK-5862,1 55920U 23037G   23233.84412868 -.00000484  00000-0 -32773-4 0  9994,2 55920  69.9995 111.6467 0002777 273.8546  86.2296 14.98329345 24887,6950.195,96.107,573.99,570.13,0.0
55920.0,STARLINK-5862,PAYLOAD,2023-08-23 01:05:57,14.9833077,0.000282,69.9994,108.6169,273.659,86.4246,-3.6994e-05,-5.34e-06,0.0,0 STARLINK-5862,1 55920U 23037G   23235.04580709 -.00000534  00000-0 -36994-4 0  9993,2 55920  69.9994 108.6169 0002820 273.6590  86.4246 14.98330770 25069,6950.191,96.107,574.015,570.096,0.0
55920.0,STARLINK-5862,PAYLOAD,2023-08-24 02:44:06,14.98331548,0.000305,69.999,105.9232,269.7472,90.3337,2.4762e-05,2.02e-06,0.0,0 STARLINK-5862,1 55920U 23037G   23236.11396384  .00000202  00000-0  24762-4 0  9996,2 55920  69.9990 105.9232 0003050 269.7472  90.3337 14.98331548 24885,6950.188,96.107,574.173,569.933,0.0
55920.0,STARLINK-5862,PAYLOAD,2023-08-25 02:46:07,14.98333314,0.0002997,69.9993,103.398,270.2695,89.812,4.4787e-05,4.41e-06,0.0,0 STARLINK-5862,1 55920U 23037G   23237.11536163  .00000441  00000-0  44787-4 0  9992,2 55920  69.9993 103.3980 0002997 270.2695  89.8120 14.98333314 25374,6950.183,96.107,574.131,569.965,0.0
55920.0,STARLINK-5862,PAYLOAD,2023-08-25 20:23:36,14.98329998,0.0002986,69.9992,101.5467,269.8326,90.2491,-2.1813e-06,-1.19e-06,0.0,0 STARLINK-5862,1 55920U 23037G   23237.84972419 -.00000119  00000-0 -21813-5 0  9990,2 55920  69.9992 101.5467 0002986 269.8326  90.2491 14.98329998 25141,6950.193,96.107,574.133,569.983,0.0
55920.0,STARLINK-5862,PAYLOAD,2023-08-26 14:01:04,14.98329242,0.0002549,69.9992,99.6945,262.6447,97.4422,-3.3958e-05,-4.98e-06,0.0,0 STARLINK-5862,1 55920U 23037G   23238.58408509 -.00000498  00000-0 -33958-4 0  9998,2 55920  69.9992  99.6945 0002549 262.6447  97.4422 14.98329242 25256,6950.195,96.107,573.832,570.289,0.0
55920.0,STARLINK-5862,PAYLOAD,2023-08-26 17:13:20,14.98330683,0.0002851,69.999,99.3581,269.3918,90.6915,-3.9591e-05,-5.65e-06,0.0,0 STARLINK-5862,1 55920U 23037G   23238.71760392 -.00000565  00000-0 -39591-4 0  9998,2 55920  69.9990  99.3581 0002851 269.3918  90.6915 14.98330683 25613,6950.191,96.107,574.037,570.074,0.0
55920.0,STARLINK-5862,PAYLOAD,2023-08-26 20:25:37,14.98330885,0.0002845,69.999,99.0215,269.6546,90.4287,-3.5187e-05,-5.13e-06,0.0,0 STARLINK-5862,1 55920U 23037G   23238.85112359 -.00000513  00000-0 -35187-4 0  9997,2 55920  69.9990  99.0215 0002845 269.6546  90.4287 14.98330885 25295,6950.19,96.107,574.032,570.078,0.0
55920.0,STARLINK-5862,PAYLOAD,2023-08-27 01:14:01,14.98331844,0.0002862,69.9989,98.516,270.5621,89.521,-2.5929e-05,-4.02e-06,0.0,0 STARLINK-5862,1 55920U 23037G   23239.05140256 -.00000402  00000-0 -25929-4 0  9997,2 55920  69.9989  98.5160 0002862 270.5621  89.5210 14.98331844 25325,6950.187,96.107,574.041,570.063,0.0
55920.0,STARLINK-5862,PAYLOAD,2023-08-27 17:15:21,14.983301,0.0002916,69.9987,96.8329,271.0536,89.0289,-2.712e-05,-4.17e-06,0.0,0 STARLINK-5862,1 55920U 23037G   23239.71900289 -.00000417  00000-0 -27120-4 0  9991,2 55920  69.9987  96.8329 0002916 271.0536  89.0289 14.98330100 25765,6950.193,96.107,574.084,570.031,0.0
55920.0,STARLINK-5862,PAYLOAD,2023-08-27 18:51:29,14.9833001,0.0002917,69.9987,96.6646,271.0462,89.0363,-2.7119e-05,-4.17e-06,0.0,0 STARLINK-5862,1 55920U 23037G   23239.78576291 -.00000417  00000-0 -27119-4 0  9998,2 55920  69.9987  96.6646 0002917 271.0462  89.0363 14.98330010 25431,6950.193,96.107,574.085,570.03,0.0
55920.0,STARLINK-5862,PAYLOAD,2023-08-28 20:29:38,14.98328813,0.0002979,69.9984,93.9715,269.2757,90.8061,1.2664e-06,-7.8e-07,0.0,0 STARLINK-5862,1 55920U 23037G   23240.85392272 -.00000078  00000-0  12664-5 0  9995,2 55920  69.9984  93.9715 0002979 269.2757  90.8061 14.98328813 25599,6950.197,96.107,574.132,569.991,0.0
55920.0,STARLINK-5862,PAYLOAD,2023-08-28 23:41:55,14.98328076,0.0003012,69.9984,93.6349,269.449,90.6324,-7.138e-06,-1.78e-06,0.0,0 STARLINK-5862,1 55920U 23037G   23240.98744347 -.00000178  00000-0 -71380-5 0  9995,2 55920  69.9984  93.6349 0003012 269.4490  90.6324 14.98328076 25955,6950.199,96.107,574.157,569.97,0.0
55920.0,STARLINK-5862,PAYLOAD,2023-08-29 20:31:40,14.9832846,0.0003085,69.9984,91.4466,269.9674,90.1132,-3.2469e-05,-4.8e-06,0.0,0 STARLINK-5862,1 55920U 23037G   23241.85532440 -.00000480  00000-0 -32469-4 0  9991,2 55920  69.9984  91.4466 0003085 269.9674  90.1132 14.98328460 25746,6950.198,96.107,574.207,569.919,0.0
55920.0,STARLINK-5862,PAYLOAD,2023-08-29 23:43:56,14.98330319,0.0003078,69.9985,91.11,270.1261,89.9546,-1.0731e-05,-2.21e-06,0.0,0 STARLINK-5862,1 55920U 23037G   23241.98884263 -.00000221  00000-0 -10731-4 0  9999,2 55920  69.9985  91.1100 0003078 270.1261  89.9546 14.98330319 26109,6950.192,96.107,574.196,569.918,0.0
